NORAD_CAT_ID,OBJECT_NAME,OBJECT_TYPE,EPOCH,MEAN_MOTION,ECCENTRICITY,INCLINATION,RA_OF_ASC_NODE,ARG_OF_PERICENTER,MEAN_ANOMALY,BSTAR,MEAN_MOTION_DOT,MEAN_MOTION_DDOT,TLE_LINE0,TLE_LINE1,TLE_LINE2,SEMIMAJOR_AXIS,PERIOD,APOGEE,PERIGEE,DECAYED
51973.0,STARLINK-3679,PAYLOAD,2023-08-12 10:13:14,15.0640468,9.21e-05,53.0528,291.8346,83.1482,276.9612,9.1451e-05,1.081e-05,0.0,0 STARLINK-3679,1 51973U 22025T   23224.42586540  .00001081  00000-0  91451-4 0  9997,2 51973  53.0528 291.8346 0000921  83.1482 276.9612 15.06404680 80297,6925.334,95.592,547.837,546.561,0.0
51973.0,STARLINK-3679,PAYLOAD,2023-08-12 21:22:01,15.0639856,0.0001169,53.0518,289.7487,86.5158,273.5964,5.2069e-05,4.94e-06,0.0,0 STARLINK-3679,1 51973U 22025T   23224.89029481  .00000494  00000-0  52069-4 0  9993,2 51973  53.0518 289.7487 0001169  86.5158 273.5964 15.06398560 80360,6925.353,95.592,548.028,546.408,0.0
51973.0,STARLINK-3679,PAYLOAD,2023-08-14 03:37:16,15.06396617,5.75e-05,53.0518,284.0923,89.0241,271.0814,0.00012895,1.64e-05,0.0,0 STARLINK-3679,1 51973U 22025T   23226.15088554  .00001640  00000-0  12895-3 0  9996,2 51973  53.0518 284.0923 0000575  89.0241 271.0814 15.06396617 80553,6925.359,95.592,547.622,546.826,0.0
51973.0,STARLINK-3679,PAYLOAD,2023-08-15 09:52:31,15.06397591,9.34e-05,53.0513,278.4311,86.5015,273.6081,0.00024568,3.38e-05,0.0,0 STARLINK-3679,1 51973U 22025T   23227.41147824  .00003380  00000-0  24568-3 0  9995,2 51973  53.0513 278.4311 0000934  86.5015 273.6081 15.06397591 80743,6925.356,95.592,547.868,546.574,0.0
51973.0,STARLINK-3679,PAYLOAD,2023-08-16 08:10:05,15.06395002,0.0001098,53.0524,274.2618,78.3613,281.7499,7.3244e-05,8.1e-06,0.0,0 STARLINK-3679,1 51973U 22025T   23228.34033764  .00000810  00000-0  73244-4 0  9996,2 51973  53.0524 274.2618 0001098  78.3613 281.7499 15.06395002 80887,6925.364,95.592,547.989,546.468,0.0
51973.0,STARLINK-3679,PAYLOAD,2023-08-16 14:32:14,15.06402464,0.000101,53.0522,273.0685,89.5566,270.5539,0.00013805,1.776e-05,0.0,0 STARLINK-3679,1 51973U 22025T   23228.60572052  .00001776  00000-0  13805-3 0  9991,2 51973  53.0522 273.0685 0001010  89.5566 270.5539 15.06402464 80928,6925.341,95.592,547.905,546.507,0.0
51973.0,STARLINK-3679,PAYLOAD,2023-08-17 19:11:57,15.06394149,0.0001702,53.0524,267.7054,80.0087,280.1094,1.6906e-05,-3e-07,0.0,0 STARLINK-3679,1 51973U 22025T   23229.79996931 -.00000030  00000-0  16906-4 0  9997,2 51973  53.0524 267.7054 0001702  80.0087 280.1094 15.06394149 81106,6925.366,95.593,548.41,546.053,0.0
51973.0,STARLINK-3679,PAYLOAD,2023-08-18 09:31:48,15.06400488,0.0001068,53.0515,265.0271,89.859,270.2521,0.00010996,1.357e-05,0.0,0 STARLINK-3679,1 51973U 22025T   23230.39708662  .00001357  00000-0  10996-3 0  9991,2 51973  53.0515 265.0271 0001068  89.8590 270.2521 15.06400488 81197,6925.347,95.592,547.952,546.472,0.0
51973.0,STARLINK-3679,PAYLOAD,2023-08-19 11:00:26,15.06400756,0.000108,53.051,260.2607,89.5083,270.603,0.00010334,1.258e-05,0.0,0 STARLINK-3679,1 51973U 22025T   23231.45863570  .00001258  00000-0  10334-3 0  9995,2 51973  53.0510 260.2607 0001080  89.5083 270.6030 15.06400756 81355,6925.346,95.592,547.959,546.463,0.0
51973.0,STARLINK-3679,PAYLOAD,2023-08-20 09:17:59,15.06398051,0.000112,53.052,256.0906,94.6702,265.4414,9.2328e-05,1.094e-05,0.0,0 STARLINK-3679,1 51973U 22025T   23232.38749467  .00001094  00000-0  92328-4 0  9998,2 51973  53.0520 256.0906 0001120  94.6702 265.4414 15.06398051 81498,6925.355,95.592,547.995,546.444,0.0
51973.0,STARLINK-3679,PAYLOAD,2023-08-22 04:17:33,15.06398266,0.0001101,53.0523,248.0489,87.2876,272.8239,9.2214e-05,1.092e-05,0.0,0 STARLINK-3679,1 51973U 22025T   23234.17886332  .00001092  00000-0  92214-4 0  9992,2 51973  53.0523 248.0489 0001101  87.2876 272.8239 15.06398266 81762,6925.354,95.592,547.981,546.456,0.0
51973.0,STARLINK-3679,PAYLOAD,2023-08-24 05:39:17,15.06397993,0.0001274,53.0534,238.8153,98.3704,261.743,7.4972e-05,8.35e-06,0.0,0 STARLINK-3679,1 51973U 22025T   23236.23561572  .00000835  00000-0  74972-4 0  9992,2 51973  53.0534 238.8153 0001274  98.3704 261.7430 15.06397993 80982,6925.355,95.592,548.102,546.337,0.0
51973.0,STARLINK-3679,PAYLOAD,2023-08-25 10:18:59,15.06398924,0.0001269,53.0532,233.454,98.2883,261.825,4.2888e-05,3.57e-06,0.0,0 STARLINK-3679,1 51973U 22025T   23237.42986004  .00000357  00000-0  42888-4 0  9995,2 51973  53.0532 233.4540 0001269  98.2883 261.8250 15.06398924 81169,6925.352,95.592,548.096,546.338,0.0
51973.0,STARLINK-3679,PAYLOAD,2023-08-26 05:25:28,15.06397746,0.0001273,53.0538,229.8803,98.1556,261.9578,6.952e-05,7.54e-06,0.0,0 STARLINK-3679,1 51973U 22025T   23238.22602387  .00000754  00000-0  69520-4 0  9996,2 51973  53.0538 229.8803 0001273  98.1556 261.9578 15.06397746 81285,6925.355,95.592,548.102,546.339,0.0
51973.0,STARLINK-3679,PAYLOAD,2023-08-27 00:31:56,15.06399458,0.0001296,53.0539,226.3035,93.9436,266.1701,9.5181e-05,1.137e-05,0.0,0 STARLINK-3679,1 51973U 22025T   23239.02218475  .00001137  00000-0  95181-4 0  9994,2 51973  53.0539 226.3035 0001296  93.9436 266.1701 15.06399458 82491,6925.35,95.592,548.113,546.318,0.0
51973.0,STARLINK-3679,PAYLOAD,2023-08-27 05:18:33,15.06401883,0.0001323,53.0537,225.4093,92.7401,267.3739,0.00011524,1.436e-05,0.0,0 STARLINK-3679,1 51973U 22025T   23239.22122329  .00001436  00000-0  11524-3 0  9998,2 51973  53.0537 225.4093 0001323  92.7401 267.3739 15.06401883 81436,6925.343,95.592,548.124,546.292,0.0
51973.0,STARLINK-3679,PAYLOAD,2023-08-28 02:00:34,15.06397633,0.0001602,53.0553,221.5425,98.3578,261.7592,5.7547e-05,5.76e-06,0.0,0 STARLINK-3679,1 51973U 22025T   23240.08373691  .00000576  00000-0  57547-4 0  9994,2 51973  53.0553 221.5425 0001602  98.3578 261.7592 15.06397633 82654,6925.356,95.592,548.33,546.111,0.0
51973.0,STARLINK-3679,PAYLOAD,2023-08-28 16:20:26,15.06397801,0.000142,53.0537,218.8602,90.4727,269.6425,3.9904e-05,3.13e-06,0.0,0 STARLINK-3679,1 51973U 22025T   23240.68085806  .00000313  00000-0  39904-4 0  9994,2 51973  53.0537 218.8602 0001420  90.4727 269.6425 15.06397801 81657,6925.355,95.592,548.204,546.237,0.0
51973.0,STARLINK-3679,PAYLOAD,2023-08-29 08:15:49,15.06403985,0.0001471,53.0541,215.8812,92.1167,267.9991,7.6118e-05,8.53e-06,0.0,0 STARLINK-3679,1 51973U 22025T   23241.34432074  .00000853  00000-0  76118-4 0  9998,2 51973  53.0541 215.8812 0001471  92.1167 267.9991 15.06403985 82847,6925.336,95.592,548.22,546.183,0.0
51973.0,STARLINK-3679,PAYLOAD,2023-08-30 03:22:18,15.06389821,0.0001518,53.0552,212.3097,94.1614,265.9549,-1.6521e-05,-5.27e-06,0.0,0 STARLINK-3679,1 51973U 22025T   23242.14049687 -.00000527  00000-0 -16521-4 0  9993,2 51973  53.0552 212.3097 0001518  94.1614 265.9549 15.06389821 82969,6925.38,95.593,548.296,546.193,0.0
51973.0,STARLINK-3679,PAYLOAD,2023-08-30 14:31:05,15.06392843,0.0001564,53.0549,210.2227,94.8269,265.2898,6.9088e-06,-1.79e-06,0.0,0 STARLINK-3679,1 51973U 22025T   23242.60492362 -.00000179  00000-0  69088-5 0  9995,2 51973  53.0549 210.2227 0001564  94.8269 265.2898 15.06392843 81946,6925.37,95.593,548.319,546.152,0.0
51973.0,STARLINK-3679,PAYLOAD,2023-08-31 06:26:28,15.06404824,0.000141,53.0547,207.2451,93.9918,266.1232,-5.5788e-05,-1.112e-05,0.0,0 STARLINK-3679,1 51973U 22025T   23243.26838741 -.00001112  00000-0 -55788-4 0  9993,2 51973  53.0547 207.2451 0001410  93.9918 266.1232 15.06404824 83138,6925.334,95.592,548.175,546.222,0.0
51973.0,STARLINK-3679,PAYLOAD,2023-08-31 23:57:25,15.06392821,0.000145,53.0546,203.969,90.9694,269.1461,5.0995e-05,4.78e-06,0.0,0 STARLINK-3679,1 51973U 22025T   23243.99820972  .00000478  00000-0  50995-4 0  9997,2 51973  53.0546 203.9690 0001450  90.9694 269.1461 15.06392821 83249,6925.371,95.593,548.24,546.231,0.0
51973.0,STARLINK-3679,PAYLOAD,2023-09-01 06:19:34,15.06400109,0.0001499,53.0547,202.7779,90.5382,269.5778,9.9536e-06,-1.33e-06,0.0,0 STARLINK-3679,1 51973U 22025T   23244.26359470 -.00000133  00000-0  99536-5 0  9992,2 51973  53.0547 202.7779 0001499  90.5382 269.5778 15.06400109 82195,6925.348,95.592,548.251,546.175,0.0
51973.0,STARLINK-3679,PAYLOAD,2023-09-01 14:17:16,15.06398013,0.0001461,53.0548,201.2877,90.8062,269.3094,9.8516e-05,1.186e-05,0.0,0 STARLINK-3679,1 51973U 22025T   23244.59532839  .00001186  00000-0  98516-4 0  9994,2 51973  53.0548 201.2877 0001461  90.8062 269.3094 15.06398013 82241,6925.355,95.592,548.231,546.208,0.0
51973.0,STARLINK-3679,PAYLOAD,2023-09-02 20:32:30,15.06412074,0.0001384,53.0487,195.6263,67.7842,292.3294,-3.5939e-05,-8.17e-06,0.0,0 STARLINK-3679,1 51973U 22025T   23245.85591261 -.00000817  00000-0 -35939-4 0  9990,2 51973  53.0487 195.6263 0001384  67.7842 292.3294 15.06412074 82434,6925.312,95.591,548.135,546.218,0.0
51973.0,STARLINK-3679,PAYLOAD,2023-09-03 02:54:40,15.06396111,0.0001343,53.0526,194.4374,83.8573,276.2569,4.0734e-05,3.25e-06,0.0,0 STARLINK-3679,1 51973U 22025T   23246.12130510  .00000325  00000-0  40734-4 0  9998,2 51973  53.0526 194.4374 0001343  83.8573 276.2569 15.06396111 83567,6925.36,95.592,548.156,546.295,0.0
51973.0,STARLINK-3679,PAYLOAD,2023-09-03 14:03:26,15.06398494,2.12e-05,53.0544,192.3514,108.3252,251.776,1.7756e-05,-1.6e-07,0.0,0 STARLINK-3679,1 51973U 22025T   23246.58572775 -.00000016  00000-0  17756-4 0  9997,2 51973  53.0544 192.3514 0000212 108.3252 251.7760 15.06398494 82545,6925.353,95.592,547.365,547.071,0.0
51973.0,STARLINK-3679,PAYLOAD,2023-09-04 05:58:51,15.06393516,0.0001411,53.0549,189.3742,91.5041,268.611,8.8397e-05,1.035e-05,0.0,0 STARLINK-3679,1 51973U 22025T   23247.24920139  .00001035  00000-0  88397-4 0  9992,2 51973  53.0549 189.3742 0001411  91.5041 268.6110 15.06393516 83738,6925.368,95.593,548.211,546.256,0.0
51973.0,STARLINK-3679,PAYLOAD,2023-09-05 05:51:56,15.06400127,0.0001451,53.0552,184.9063,96.5508,263.5646,4.218e-05,3.47e-06,0.0,0 STARLINK-3679,1 51973U 22025T   23248.24440307  .00000347  00000-0  42180-4 0  9992,2 51973  53.0552 184.9063 0001451  96.5508 263.5646 15.06400127 82796,6925.348,95.592,548.218,546.208,0.0
